STARLINK-3704           
1 51959U 22025D   23275.63500773  .00000143  00000+0  29466-4 0  9998
2 51959  53.0559  63.5982 0001483  96.9092 263.2065 15.04765972 86893
STARLINK-3691           
1 51960U 22025E   23275.82633519  .00000638  00000+0  64196-4 0  9994
2 51960  53.0553  62.7391 0001282  90.2983 269.8152 15.04765675 86920
STARLINK-3689           
1 51961U 22025F   23276.11183083 -.00001689  00000+0 -90112-4 0  9990
2 51961  53.0573  56.5850 0001594  88.3558 271.7614 15.08035677 88143
STARLINK-3697           
1 51962U 22025G   23275.82650015  .00001239  00000+0  97911-4 0  9995
2 51962  53.0544  57.8174 0001371  91.8202 268.2944 15.08033052 86996
STARLINK-3675           
1 51963U 22025H   23276.10735468  .00000557  00000+0  54154-4 0  9998
2 51963  53.0563  56.6237 0001637  81.8611 278.2564 15.08034185 88127
STARLINK-3690           
1 51964U 22025J   23275.68570387  .00000899  00000+0  76093-4 0  9993
2 51964  53.0541  58.4817 0001331  91.6623 268.4519 15.08031643 86979
STARLINK-3696           
1 51965U 22025K   23275.82330199  .00000083  00000+0  25279-4 0  9990
2 51965  53.0550  62.7554 0001441  87.5096 272.6058 15.04769860 86921
STARLINK-3699           
1 51966U 22025L   23276.11747645  .00001727  00000+0  13482-3 0  9990
2 51966  53.0549  59.7810 0001231  86.4403 273.6726 15.06400392 88084
STARLINK-3681           
1 51968U 22025N   23275.80753084 -.00000115  00000+0  10993-4 0  9997
2 51968  53.0555  57.9255 0001694  97.0123 263.1059 15.08031066 86997
STARLINK-3680           
1 51969U 22025P   23275.77563288 -.00000916  00000+0 -40458-4 0  9998
2 51969  53.0557  57.6128 0001839  81.0018 279.1180 15.08026421 86983
STARLINK-3677           
1 51970U 22025Q   23275.71571641 -.00000566  00000+0 -19089-4 0  9993
2 51970  53.0554  61.6588 0001471  89.0109 271.1049 15.06395099 86937
STARLINK-3669           
1 51971U 22025R   23275.81517764  .00000309  00000+0  38203-4 0  9993
2 51971  53.0545  57.8836 0001437  89.6382 270.4772 15.08042751 86999
STARLINK-3671           
1 51972U 22025S   23275.63831198  .00000270  00000+0  37046-4 0  9995
2 51972  53.0557  61.9878 0001404  85.3618 274.7531 15.06396902 86925
STARLINK-3679           
1 51973U 22025T   23275.64567609 -.00002196  00000+0 -12859-3 0  9995
2 51973  53.0553  61.8968 0001539  91.1831 268.9334 15.06391119 86923
STARLINK-3672           
1 51974U 22025U   23275.63462611  .00000271  00000+0  37062-4 0  9996
2 51974  53.0566  62.0044 0001376  83.0986 277.0160 15.06397387 86916
STARLINK-3674           
1 51975U 22025V   23276.10829278 -.00001173  00000+0 -62892-4 0  9999
2 51975  53.0553  55.7383 0001438  74.2741 285.8405 15.04757805 88169
STARLINK-3663           
1 51976U 22025W   23275.72601901  .00000966  00000+0  78805-4 0  9996
2 51976  53.2190  69.6556 0001386  92.2159 267.8992 15.08836886 86867
STARLINK-3660           
1 51977U 22025X   23275.80884068  .00012644  00000+0  81107-3 0  9997
2 51977  53.2186  49.4699 0001629  92.0515 268.0664 15.08840692 87142
STARLINK-3666           
1 51978U 22025Y   23275.86587805  .00001316  00000+0  10072-3 0  9990
2 51978  53.2176  69.2255 0001420  86.2663 273.8492 15.08843316 86876
STARLINK-3656           
1 51979U 22025Z   23276.14461068  .00015206  00000+0  97145-3 0  9994
2 51979  53.2171  67.9554 0002195  83.6013 276.5230 15.08839212 88039
STARLINK-3649           
1 51980U 22025AA  23275.72508048  .00000229  00000+0  32493-4 0  9994
2 51980  53.2168  69.8350 0001297  79.9635 280.1504 15.08840366 86857
STARLINK-3635           
1 51981U 22025AB  23275.80604650  .00000061  00000+0  21957-4 0  9997
2 51981  53.2191  69.4712 0001591  85.6052 274.5122 15.08840236 87968
STARLINK-3650           
1 51982U 22025AC  23275.72140318  .00001036  00000+0  83150-4 0  9991
2 51982  53.2176  69.8531 0001265  88.4531 271.6606 15.08838805 86857
STARLINK-3655           
1 51983U 22025AD  23275.73611880  .00000670  00000+0  60178-4 0  9998
2 51983  53.2174  69.7864 0001507  85.3137 274.8027 15.08840053 86851
STARLINK-3664           
1 51984U 22025AE  23275.69932141  .00000466  00000+0  47352-4 0  9992
2 51984  53.2167  69.9541 0001357  86.3474 273.7674 15.08841269 86852
STARLINK-3651           
1 51985U 22025AF  23276.12715656  .00000844  00000+0  71121-4 0  9993
2 51985  53.2183  68.0429 0001078  80.9091 279.2023 15.08844047 88006
STARLINK-3645           
1 51986U 22025AG  23275.80970593 -.00000957  00000+0 -42060-4 0  9998
2 51986  53.2169  69.3025 0001718  80.6982 279.4204 15.08835563 86873
STARLINK-3644           
1 51987U 22025AH  23275.83916246  .00001141  00000+0  89782-4 0  9993
2 51987  53.2177  69.3235 0001502  95.9954 264.1209 15.08837199 87969
STARLINK-3640           
1 51988U 22025AJ  23275.82076737  .00000994  00000+0  80569-4 0  9994
2 51988  53.2178  69.4089 0001452  83.3840 276.7317 15.08838934 87987
STARLINK-3642           
1 51989U 22025AK  23275.70300259  .00000472  00000+0  47749-4 0  9995
2 51989  53.2174  69.9347 0001422  95.9990 264.1164 15.08841354 86854
STARLINK-3657           
1 51990U 22025AL  23275.67172162  .00000026  00000+0  19751-4 0  9990
2 51990  53.2187  50.0735 0001397  92.4256 267.6896 15.08842101 88224
STARLINK-3652           
1 51991U 22025AM  23275.69564364  .00002539  00000+0  17755-3 0  9994
2 51991  53.2171  69.9696 0001213  86.5046 273.6085 15.08845609 86851
STARLINK-3643           
1 51992U 22025AN  23275.79316188  .00000325  00000+0  38509-4 0  9997
2 51992  53.2177  49.5307 0001312  90.3434 269.7708 15.08839839 86716
STARLINK-3648           
1 51993U 22025AP  23275.81708136  .00000690  00000+0  61457-4 0  9992
2 51993  53.2188  69.4259 0001577  83.6527 276.4645 15.08841666 87983
STARLINK-3647           
1 51994U 22025AQ  23275.65700215 -.00001351  00000+0 -66809-4 0  9998
2 51994  53.2177  50.1401 0001402  96.5289 263.5863 15.08836732 86709
STARLINK-3636           
1 51995U 22025AR  23275.80050948  .00002635  00000+0  18354-3 0  9992
2 51995  53.2174  49.4942 0001459  88.3453 271.7706 15.08854571 88230
STARLINK-3538           
1 51996U 22025AS  23275.78579928  .00006396  00000+0  41954-3 0  9994
2 51996  53.2176  49.5636 0001530 100.3936 259.7229 15.08841941 86720
STARLINK-3589           
1 51997U 22025AT  23275.66436258  .00000580  00000+0  54499-4 0  9998
2 51997  53.2186  50.1083 0001383  87.4445 272.6705 15.08839456 86699
STARLINK-3618           
1 51998U 22025AU  23275.75636586 -.00000077  00000+0  13263-4 0  9991
2 51998  53.2199  49.6999 0001553  90.4582 269.6589 15.08840726 86720
STARLINK-3667           
1 51999U 22025AV  23275.64963954 -.00000849  00000+0 -35226-4 0  9993
2 51999  53.2193  50.1647 0001516  93.1837 266.9329 15.08839399 86708
STARLINK-3653           
1 52000U 22025AW  23275.80787040  .00001735  00000+0  12707-3 0  9996
2 52000  53.2193  49.3778 0001614  82.3619 277.7556 15.08842984 88263
STARLINK-3659           
1 52001U 22025AX  23275.62116371 -.00003181  00000+0 -18194-3 0  9995
2 52001  53.2179  50.3154 0001476  85.9090 274.2071 15.08828245 86701
STARLINK-3668           
1 52002U 22025AY  23275.75269109  .00001306  00000+0  10011-3 0  9993
2 52002  53.2200  49.7533 0001515  93.6561 266.4604 15.08840584 86720
STARLINK-3654           
1 52003U 22025AZ  23275.67909112  .00003652  00000+0  24741-3 0  9991
2 52003  53.2183  50.0463 0001547  86.3744 273.7425 15.08843250 86719
S4 CROSSOVER & ASTRA R/B
1 52008U 22026A   23275.99872338  .00121597  00000+0  18175-2 0  9993
2 52008  97.4791 286.8798 0024424  68.5145 291.8709 15.54249996 86618
SPACEBEE-121            
1 52009U 22026B   23275.74479470  .00076993  00000+0  18362-2 0  9994
2 52009  97.5036 281.4247 0018259  63.6768 296.6351 15.41107258 86142
SPACEBEE-114            
1 52010U 22026C   23275.53819798  .00078465  00000+0  18004-2 0  9993
2 52010  97.5057 281.7200 0017591  64.8113 295.4956 15.42276504 86144
SPACEBEE-126            
1 52011U 22026D   23275.73741597  .00080106  00000+0  18341-2 0  9996
2 52011  97.5043 281.8103 0017633  62.5661 297.7377 15.42333405 86161
SPACEBEE-118            
1 52012U 22026E   23275.58879157  .00079116  00000+0  17781-2 0  9990
2 52012  97.5034 282.0418 0017097  65.8522 294.4511 15.42903022 86173
SPACEBEE-120            
1 52013U 22026F   23275.55114258  .00080186  00000+0  18268-2 0  9992
2 52013  97.5037 281.7355 0018208  60.1283 300.1771 15.42471557 86143
SPACEBEE-122            
1 52014U 22026G   23275.48322116  .00084481  00000+0  18794-2 0  9995
2 52014  97.5034 281.8253 0017473  63.1800 297.1231 15.43178365 86148
SPACEBEE-119            
1 52015U 22026H   23275.58592785  .00074859  00000+0  17674-2 0  9992
2 52015  97.5047 281.4618 0018323  64.0903 296.2230 15.41419695 86122
SPACEBEE-115            
1 52016U 22026J   23275.54822695  .00072740  00000+0  17439-2 0  9991
2 52016  97.5057 281.5504 0018300  63.4293 296.8826 15.40966171 86121
ORESAT0                 
1 52017U 22026K   23275.58636006  .00030911  00000+0  10805-2 0  9999
2 52017  97.5111 278.6249 0022635  69.0570 291.3090 15.29248450 85933
SPACEBEENZ-14           
1 52018U 22026L   23275.59481296  .00204320  00000+0  25883-2 0  9999
2 52018  97.4931 284.6616 0012665  64.3719 295.8844 15.58698783 86345
SPACEBEENZ-11           
1 52019U 22026M   23275.81288001  .00306705  00000+0  29750-2 0  9991
2 52019  97.4911 285.7287 0011249  71.0897 289.1581 15.65319204 86394
SPACEBEE-127            
1 52020U 22026N   23275.79384225  .00069628  00000+0  17313-2 0  9997
2 52020  97.5053 281.4443 0018656  62.7255 297.5888 15.39865493 86092
SPACEBEE-125            
1 52021U 22026P   23275.54592092  .00081968  00000+0  18269-2 0  9996
2 52021  97.5032 282.0294 0018445  61.7434 298.5672 15.43114392 86031
SPACEBEE-117            
1 52022U 22026Q   23275.79646545  .00072651  00000+0  17701-2 0  9996
2 52022  97.5059 281.6744 0018515  62.5019 297.8106 15.40473284 86020
